{
  "type": "FeatureCollection",
  "features": [
    {
      "type": "Feature",
      "geometry": {"type": "Point", "coordinates": [13.4050, 52.5200]},
      "properties": {"name": "Berlin", "population": 3645000}
    },
    {
      "type": "Feature",
      "geometry": {"type": "Point", "coordinates": [2.3522, 48.8566]},
      "properties": {"name": "Paris", "population": 2161000}
    },
    {
      "type": "Feature",
      "geometry": {
        "type": "LineString",
        "coordinates": [[13.4050, 52.5200], [2.3522, 48.8566]]
      },
      "properties": {"name": "Berlin-Paris Route"}
    }
  ]
}