<?xml version="1.0" encoding="utf-8"?><kml><Document><Schema id="temp"><SimpleField name="population" type="int" /></Schema><Placemark><name>Berlin</name><ExtendedData><SchemaData schemaUrl="#temp"><SimpleData name="population">3645000</SimpleData></SchemaData></ExtendedData><Point><coordinates>13.405,52.52</coordinates></Point></Placemark><Placemark><name>Paris</name><ExtendedData><SchemaData schemaUrl="#temp"><SimpleData name="population">2161000</SimpleData></SchemaData></ExtendedData><Point><coordinates>2.3522,48.8566</coordinates></Point></Placemark><Placemark><name>Berlin-Paris Route</name><ExtendedData><SchemaData schemaUrl="#temp" /></ExtendedData><LineString><coordinates>13.405,52.52 2.3522,48.8566</coordinates></LineString></Placemark></Document></kml>